[{"OBJECT_NAME":"SITRO-AIS 27","OBJECT_ID":"2024-039T","EPOCH":"2026-03-06T06:53:33.865728","MEAN_MOTION":14.92802228,"ECCENTRICITY":0.01450744,"INCLINATION":95.3943,"RA_OF_ASC_NODE":164.556,"ARG_OF_PERICENTER":327.6506,"MEAN_ANOMALY":31.5883,"EPHEMERIS_TYPE":0,"CLASSIFICATION_TYPE":"U","NORAD_CAT_ID":59068,"ELEMENT_SET_NO":999,"REV_AT_EPOCH":10938,"BSTAR":0.00037229377,"MEAN_MOTION_DOT":4.694e-5,"MEAN_MOTION_DDOT":0},{"OBJECT_NAME":"SITRO-AIS 28","OBJECT_ID":"2024-039U","EPOCH":"2026-03-06T06:24:30.229920","MEAN_MOTION":14.92834037,"ECCENTRICITY":0.01450542,"INCLINATION":95.3941,"RA_OF_ASC_NODE":164.584,"ARG_OF_PERICENTER":327.5277,"MEAN_ANOMALY":31.7084,"EPHEMERIS_TYPE":0,"CLASSIFICATION_TYPE":"U","NORAD_CAT_ID":59071,"ELEMENT_SET_NO":999,"REV_AT_EPOCH":10938,"BSTAR":0.00036175072,"MEAN_MOTION_DOT":4.564e-5,"MEAN_MOTION_DDOT":0},{"OBJECT_NAME":"GRBBETA","OBJECT_ID":"2024-128C","EPOCH":"2026-03-05T22:07:39.589536","MEAN_MOTION":15.05735425,"ECCENTRICITY":0.00518154,"INCLINATION":61.9897,"RA_OF_ASC_NODE":218.3381,"ARG_OF_PERICENTER":113.3484,"MEAN_ANOMALY":247.3072,"EPHEMERIS_TYPE":0,"CLASSIFICATION_TYPE":"U","NORAD_CAT_ID":60237,"ELEMENT_SET_NO":999,"REV_AT_EPOCH":9071,"BSTAR":0.0004797591,"MEAN_MOTION_DOT":6.977e-5,"MEAN_MOTION_DDOT":0},{"OBJECT_NAME":"OOV-CUBE (TUBSAT-30)","OBJECT_ID":"2024-128F","EPOCH":"2026-03-05T23:14:46.038624","MEAN_MOTION":15.02215173,"ECCENTRICITY":0.00548101,"INCLINATION":61.9943,"RA_OF_ASC_NODE":225.3497,"ARG_OF_PERICENTER":111.5574,"MEAN_ANOMALY":249.1371,"EPHEMERIS_TYPE":0,"CLASSIFICATION_TYPE":"U","NORAD_CAT_ID":60240,"ELEMENT_SET_NO":999,"REV_AT_EPOCH":9060,"BSTAR":0.00032971715,"MEAN_MOTION_DOT":4.296e-5,"MEAN_MOTION_DDOT":0},{"OBJECT_NAME":"ROBUSTA-3A (MEDITERRANEE)","OBJECT_ID":"2024-128J","EPOCH":"2026-03-05T19:46:19.166880","MEAN_MOTION":15.09970168,"ECCENTRICITY":0.00523001,"INCLINATION":61.9866,"RA_OF_ASC_NODE":213.3221,"ARG_OF_PERICENTER":107.6425,"MEAN_ANOMALY":253.039,"EPHEMERIS_TYPE":0,"CLASSIFICATION_TYPE":"U","NORAD_CAT_ID":60243,"ELEMENT_SET_NO":999,"REV_AT_EPOCH":9080,"BSTAR":0.00075558254,"MEAN_MOTION_DOT":0.00012532,"MEAN_MOTION_DDOT":0},{"OBJECT_NAME":"LASARSAT","OBJECT_ID":"2024-247Q","EPOCH":"2026-03-06T04:22:58.324800","MEAN_MOTION":15.3989858,"ECCENTRICITY":0.00024161,"INCLINATION":44.9741,"RA_OF_ASC_NODE":118.2702,"ARG_OF_PERICENTER":9.9195,"MEAN_ANOMALY":350.174,"EPHEMERIS_TYPE":0,"CLASSIFICATION_TYPE":"U","NORAD_CAT_ID":62391,"ELEMENT_SET_NO":999,"REV_AT_EPOCH":6740,"BSTAR":0.00074751641,"MEAN_MOTION_DOT":0.00030145,"MEAN_MOTION_DDOT":0},{"OBJECT_NAME":"CROCUBE","OBJECT_ID":"2024-247T","EPOCH":"2026-03-06T03:36:11.847168","MEAN_MOTION":15.41011543,"ECCENTRICITY":0.00026664,"INCLINATION":44.9725,"RA_OF_ASC_NODE":117.1069,"ARG_OF_PERICENTER":351.2743,"MEAN_ANOMALY":8.8098,"EPHEMERIS_TYPE":0,"CLASSIFICATION_TYPE":"U","NORAD_CAT_ID":62394,"ELEMENT_SET_NO":999,"REV_AT_EPOCH":6741,"BSTAR":0.0008185498,"MEAN_MOTION_DOT":0.0003431,"MEAN_MOTION_DDOT":0}]
