SITRO-AIS 27            
1 59068U 24039T   26065.28719752  .00004694  00000+0  37229-3 0  9994
2 59068  95.3943 164.5560 0145074 327.6506  31.5883 14.92802228109387
SITRO-AIS 28            
1 59071U 24039U   26065.26701655  .00004564  00000+0  36175-3 0  9994
2 59071  95.3941 164.5840 0145054 327.5277  31.7084 14.92834037109380
GRBBETA                 
1 60237U 24128C   26064.92198599  .00006977  00000+0  47976-3 0  9999
2 60237  61.9897 218.3381 0051815 113.3484 247.3072 15.05735425 90719
OOV-CUBE (TUBSAT-30)    
1 60240U 24128F   26064.96858841  .00004296  00000+0  32972-3 0  9992
2 60240  61.9943 225.3497 0054810 111.5574 249.1371 15.02215173 90609
ROBUSTA-3A (MEDITERRAN*)
1 60243U 24128J   26064.82383295  .00012532  00000+0  75558-3 0  9995
2 60243  61.9866 213.3221 0052300 107.6425 253.0390 15.09970168 90807
LASARSAT                
1 62391U 24247Q   26065.18261950  .00030145  00000+0  74752-3 0  9991
2 62391  44.9741 118.2702 0002416   9.9195 350.1740 15.39898580 67402
CROCUBE                 
1 62394U 24247T   26065.15013712  .00034310  00000+0  81855-3 0  9992
2 62394  44.9725 117.1069 0002666 351.2743   8.8098 15.41011543 67413
